{"type": "FeatureCollection", "features": [{"type": "Feature", "properties": {"ID": 7366, "gz_id": 8000001, "lat_y": -19.0478619999313, "lon_x": -65.2596020002321, "cert": "Buena"}, "geometry": {"type": "Point", "coordinates": [-65.2596020002321, -19.0478619999313]}}, {"type": "Feature", "properties": {"ID": 7367, "gz_id": 8000662, "lat_y": -19.0509330003576, "lon_x": -65.2546710003663, "cert": "Buena"}, "geometry": {"type": "Point", "coordinates": [-65.2546710003663, -19.0509330003576]}}, {"type": "Feature", "properties": {"ID": 7368, "gz_id": 8000663, "lat_y": -19.0428419995586, "lon_x": -65.2580040002844, "cert": "Buena"}, "geometry": {"type": "Point", "coordinates": [-65.2580040002844, -19.0428419995586]}}, {"type": "Feature", "properties": {"ID": 7369, "gz_id": 8000001, "lat_y": -19.0478619999313, "lon_x": -65.2596020002321, "cert": "Buena"}, "geometry": {"type": "Point", "coordinates": [-65.2596020002321, -19.0478619999313]}}, {"type": "Feature", "properties": {"ID": 7370, "gz_id": 8000077, "lat_y": -18.9853785143069, "lon_x": -65.2451227228353, "cert": "Suficiente"}, "geometry": {"type": "Point", "coordinates": [-65.2451227228353, -18.9853785143069]}}, {"type": "Feature", "properties": {"ID": 7371, "gz_id": 8000079, "lat_y": -19.1616669996323, "lon_x": -65.2647219998204, "cert": "Buena"}, "geometry": {"type": "Point", "coordinates": [-65.2647219998204, -19.1616669996323]}}, {"type": "Feature", "properties": {"ID": 7372, "gz_id": 8000069, "lat_y": -19.0042000000299, "lon_x": -65.2026000002897, "cert": "Buena"}, "geometry": {"type": "Point", "coordinates": [-65.2026000002897, -19.0042000000299]}}, {"type": "Feature", "properties": {"ID": 7373, "gz_id": 8000078, "lat_y": -19.1197019997475, "lon_x": -65.3770590001727, "cert": "Buena"}, "geometry": {"type": "Point", "coordinates": [-65.3770590001727, -19.1197019997475]}}, {"type": "Feature", "properties": {"ID": 7374, "gz_id": 8000024, "lat_y": -19.189458999733, "lon_x": -65.1214300000944, "cert": "Buena"}, "geometry": {"type": "Point", "coordinates": [-65.1214300000944, -19.189458999733]}}, {"type": "Feature", "properties": {"ID": 7375, "gz_id": 8000071, "lat_y": -18.9779000003846, "lon_x": -65.0305000003747, "cert": "Buena"}, "geometry": {"type": "Point", "coordinates": [-65.0305000003747, -18.9779000003846]}}, {"type": "Feature", "properties": {"ID": 7376, "gz_id": 8000073, "lat_y": -18.7243899999984, "lon_x": -65.2776509997938, "cert": "Buena"}, "geometry": {"type": "Point", "coordinates": [-65.2776509997938, -18.7243899999984]}}, {"type": "Feature", "properties": {"ID": 7377, "gz_id": 8000070, "lat_y": -19.1394579997868, "lon_x": -65.1714299999945, "cert": "No localizado"}, "geometry": {"type": "Point", "coordinates": [-65.1714299999945, -19.1394579997868]}}, {"type": "Feature", "properties": {"ID": 7378, "gz_id": 8000081, "lat_y": -18.6236209998092, "lon_x": -65.2856400003857, "cert": "Buena"}, "geometry": {"type": "Point", "coordinates": [-65.2856400003857, -18.6236209998092]}}, {"type": "Feature", "properties": {"ID": 7379, "gz_id": 8000074, "lat_y": -18.5382120001836, "lon_x": -65.426687000005, "cert": "Buena"}, "geometry": {"type": "Point", "coordinates": [-65.426687000005, -18.5382120001836]}}, {"type": "Feature", "properties": {"ID": 7380, "gz_id": 8000075, "lat_y": -18.7940200004226, "lon_x": -65.3261630003221, "cert": "Buena"}, "geometry": {"type": "Point", "coordinates": [-65.3261630003221, -18.7940200004226]}}, {"type": "Feature", "properties": {"ID": 7381, "gz_id": 8000072, "lat_y": -18.951102000257, "lon_x": -65.1265359999364, "cert": "Buena"}, "geometry": {"type": "Point", "coordinates": [-65.1265359999364, -18.951102000257]}}, {"type": "Feature", "properties": {"ID": 7382, "gz_id": 8000076, "lat_y": -18.9146189995672, "lon_x": -65.2959439998157, "cert": "Buena"}, "geometry": {"type": "Point", "coordinates": [-65.2959439998157, -18.9146189995672]}}, {"type": "Feature", "properties": {"ID": 7383, "gz_id": 8000362, "lat_y": -19.3027179895435, "lon_x": -65.1697623709366, "cert": "Suficiente"}, "geometry": {"type": "Point", "coordinates": [-65.1697623709366, -19.3027179895435]}}, {"type": "Feature", "properties": {"ID": 7384, "gz_id": 8000006, "lat_y": -19.5892809997183, "lon_x": -65.7535109998327, "cert": "Buena"}, "geometry": {"type": "Point", "coordinates": [-65.7535109998327, -19.5892809997183]}}, {"type": "Feature", "properties": {"ID": 7385, "gz_id": 8000675, "lat_y": -19.5866050004204, "lon_x": -65.7548240001275, "cert": "Buena"}, "geometry": {"type": "Point", "coordinates": [-65.7548240001275, -19.5866050004204]}}, {"type": "Feature", "properties": {"ID": 7386, "gz_id": 8000676, "lat_y": -19.5812720000027, "lon_x": -65.7511099997267, "cert": "Buena"}, "geometry": {"type": "Point", "coordinates": [-65.7511099997267, -19.5812720000027]}}, {"type": "Feature", "properties": {"ID": 7387, "gz_id": 8000704, "lat_y": -19.586605, "lon_x": -65.754824, "cert": ""}, "geometry": {"type": "Point", "coordinates": [-65.754824, -19.586605]}}, {"type": "Feature", "properties": {"ID": 7388, "gz_id": 8000674, "lat_y": -19.5917340004237, "lon_x": -65.7593839999716, "cert": "Buena"}, "geometry": {"type": "Point", "coordinates": [-65.7593839999716, -19.5917340004237]}}, {"type": "Feature", "properties": {"ID": 7389, "gz_id": 8000672, "lat_y": -19.5946269998361, "lon_x": -65.7519570001154, "cert": "Buena"}, "geometry": {"type": "Point", "coordinates": [-65.7519570001154, -19.5946269998361]}}, {"type": "Feature", "properties": {"ID": 7390, "gz_id": 8000669, "lat_y": -19.5927250002585, "lon_x": -65.7499199997082, "cert": "Buena"}, "geometry": {"type": "Point", "coordinates": [-65.7499199997082, -19.5927250002585]}}, {"type": "Feature", "properties": {"ID": 7391, "gz_id": 8000673, "lat_y": -19.5922699999605, "lon_x": -65.7548500004272, "cert": "Buena"}, "geometry": {"type": "Point", "coordinates": [-65.7548500004272, -19.5922699999605]}}, {"type": "Feature", "properties": {"ID": 7392, "gz_id": 8000670, "lat_y": -19.5903389999448, "lon_x": -65.7461939996533, "cert": "Buena"}, "geometry": {"type": "Point", "coordinates": [-65.7461939996533, -19.5903389999448]}}, {"type": "Feature", "properties": {"ID": 7393, "gz_id": 8000671, "lat_y": -19.5925830000054, "lon_x": -65.7469539996274, "cert": "Buena"}, "geometry": {"type": "Point", "coordinates": [-65.7469539996274, -19.5925830000054]}}, {"type": "Feature", "properties": {"ID": 7394, "gz_id": 8000006, "lat_y": -19.5892809997183, "lon_x": -65.7535109998327, "cert": "Buena"}, "geometry": {"type": "Point", "coordinates": [-65.7535109998327, -19.5892809997183]}}, {"type": "Feature", "properties": {"ID": 7395, "gz_id": 8000004, "lat_y": -17.3935420000632, "lon_x": -66.1570139995964, "cert": "Buena"}, "geometry": {"type": "Point", "coordinates": [-66.1570139995964, -17.3935420000632]}}, {"type": "Feature", "properties": {"ID": 7396, "gz_id": 8000028, "lat_y": -17.4038860004385, "lon_x": -66.0403710003214, "cert": "Buena"}, "geometry": {"type": "Point", "coordinates": [-66.0403710003214, -17.4038860004385]}}, {"type": "Feature", "properties": {"ID": 7397, "gz_id": 8000098, "lat_y": -17.3976030002782, "lon_x": -66.2816509996939, "cert": "Buena"}, "geometry": {"type": "Point", "coordinates": [-66.2816509996939, -17.3976030002782]}}, {"type": "Feature", "properties": {"ID": 7398, "gz_id": 9900990, "lat_y": -17.3372059103244, "lon_x": -66.2649404899116, "cert": "Buena"}, "geometry": {"type": "Point", "coordinates": [-66.2649404899116, -17.3372059103244]}}, {"type": "Feature", "properties": {"ID": 7399, "gz_id": 8000099, "lat_y": -17.338071999723, "lon_x": -66.2188029999584, "cert": "Buena"}, "geometry": {"type": "Point", "coordinates": [-66.2188029999584, -17.338071999723]}}, {"type": "Feature", "properties": {"ID": 7400, "gz_id": 8000097, "lat_y": -17.4535280000171, "lon_x": -66.3579340002539, "cert": "Buena"}, "geometry": {"type": "Point", "coordinates": [-66.3579340002539, -17.4535280000171]}}, {"type": "Feature", "properties": {"ID": 7401, "gz_id": 8000025, "lat_y": -17.8212085628249, "lon_x": -66.4042621015147, "cert": "Buena"}, "geometry": {"type": "Point", "coordinates": [-66.4042621015147, -17.8212085628249]}}, {"type": "Feature", "properties": {"ID": 7402, "gz_id": 8000085, "lat_y": -17.6260099995618, "lon_x": -66.257311999649, "cert": "Buena"}, "geometry": {"type": "Point", "coordinates": [-66.257311999649, -17.6260099995618]}}, {"type": "Feature", "properties": {"ID": 7403, "gz_id": 8000083, "lat_y": -17.8552075964533, "lon_x": -66.4197760786031, "cert": "Buena"}, "geometry": {"type": "Point", "coordinates": [-66.4197760786031, -17.8552075964533]}}, {"type": "Feature", "properties": {"ID": 7404, "gz_id": 8000089, "lat_y": -17.1217419997934, "lon_x": -66.8687309998357, "cert": "Buena"}, "geometry": {"type": "Point", "coordinates": [-66.8687309998357, -17.1217419997934]}}, {"type": "Feature", "properties": {"ID": 7405, "gz_id": 8000088, "lat_y": -17.2146239995978, "lon_x": -66.6553979996179, "cert": "Buena"}, "geometry": {"type": "Point", "coordinates": [-66.6553979996179, -17.2146239995978]}}, {"type": "Feature", "properties": {"ID": 7406, "gz_id": 8000084, "lat_y": -17.714704999636, "lon_x": -66.2628139997663, "cert": "Buena"}, "geometry": {"type": "Point", "coordinates": [-66.2628139997663, -17.714704999636]}}, {"type": "Feature", "properties": {"ID": 7407, "gz_id": 8000096, "lat_y": -16.9150999996652, "lon_x": -66.6186999998051, "cert": "Buena"}, "geometry": {"type": "Point", "coordinates": [-66.6186999998051, -16.9150999996652]}}, {"type": "Feature", "properties": {"ID": 7408, "gz_id": 8000029, "lat_y": -17.5163290002831, "lon_x": -66.6204060002367, "cert": "Buena"}, "geometry": {"type": "Point", "coordinates": [-66.6204060002367, -17.5163290002831]}}, {"type": "Feature", "properties": {"ID": 7409, "gz_id": 8000017, "lat_y": -21.5330259996501, "lon_x": -64.7360689996846, "cert": "Buena"}, "geometry": {"type": "Point", "coordinates": [-64.7360689996846, -21.5330259996501]}}, {"type": "Feature", "properties": {"ID": 7410, "gz_id": 8000186, "lat_y": -21.6959350002001, "lon_x": -64.1700369602375, "cert": "Buena"}, "geometry": {"type": "Point", "coordinates": [-64.1700369602375, -21.6959350002001]}}, {"type": "Feature", "properties": {"ID": 7411, "gz_id": 8000185, "lat_y": -21.4156230004011, "lon_x": -64.7508879995815, "cert": "Buena"}, "geometry": {"type": "Point", "coordinates": [-64.7508879995815, -21.4156230004011]}}, {"type": "Feature", "properties": {"ID": 7412, "gz_id": 8000038, "lat_y": -21.4428390000198, "lon_x": -65.7205699997057, "cert": "Buena"}, "geometry": {"type": "Point", "coordinates": [-65.7205699997057, -21.4428390000198]}}, {"type": "Feature", "properties": {"ID": 7413, "gz_id": 8000165, "lat_y": -20.3687500001124, "lon_x": -65.4650700001803, "cert": "Buena"}, "geometry": {"type": "Point", "coordinates": [-65.4650700001803, -20.3687500001124]}}, {"type": "Feature", "properties": {"ID": 7414, "gz_id": 8000163, "lat_y": -21.752700000005, "lon_x": -65.8243999998601, "cert": "Buena"}, "geometry": {"type": "Point", "coordinates": [-65.8243999998601, -21.752700000005]}}, {"type": "Feature", "properties": {"ID": 7415, "gz_id": 8000164, "lat_y": -20.8171999996802, "lon_x": -65.660899999935, "cert": "Buena"}, "geometry": {"type": "Point", "coordinates": [-65.660899999935, -20.8171999996802]}}, {"type": "Feature", "properties": {"ID": 7416, "gz_id": 8000480, "lat_y": -20.9737999997701, "lon_x": -66.3314999998251, "cert": "Buena"}, "geometry": {"type": "Point", "coordinates": [-66.3314999998251, -20.9737999997701]}}, {"type": "Feature", "properties": {"ID": 7417, "gz_id": 8000010, "lat_y": -17.9694660001558, "lon_x": -67.1143640002983, "cert": "Buena"}, "geometry": {"type": "Point", "coordinates": [-67.1143640002983, -17.9694660001558]}}, {"type": "Feature", "properties": {"ID": 7418, "gz_id": 8000664, "lat_y": -17.9704319997369, "lon_x": -67.1130340001189, "cert": "Buena"}, "geometry": {"type": "Point", "coordinates": [-67.1130340001189, -17.9704319997369]}}, {"type": "Feature", "properties": {"ID": 7419, "gz_id": 8000010, "lat_y": -17.9694660001558, "lon_x": -67.1143640002983, "cert": "Buena"}, "geometry": {"type": "Point", "coordinates": [-67.1143640002983, -17.9694660001558]}}, {"type": "Feature", "properties": {"ID": 7420, "gz_id": 8000170, "lat_y": -19.7988839996968, "lon_x": -65.988849000381, "cert": "Buena"}, "geometry": {"type": "Point", "coordinates": [-65.988849000381, -19.7988839996968]}}, {"type": "Feature", "properties": {"ID": 7421, "gz_id": 8000016, "lat_y": -19.7944439999906, "lon_x": -65.5058330003926, "cert": "Buena"}, "geometry": {"type": "Point", "coordinates": [-65.5058330003926, -19.7944439999906]}}, {"type": "Feature", "properties": {"ID": 7422, "gz_id": 8000174, "lat_y": -19.5883160001832, "lon_x": -65.5614860001787, "cert": "Buena"}, "geometry": {"type": "Point", "coordinates": [-65.5614860001787, -19.5883160001832]}}, {"type": "Feature", "properties": {"ID": 7423, "gz_id": 8000168, "lat_y": -20.00739999991, "lon_x": -65.6536999997551, "cert": "Suficiente"}, "geometry": {"type": "Point", "coordinates": [-65.6536999997551, -20.00739999991]}}, {"type": "Feature", "properties": {"ID": 7424, "gz_id": 8000169, "lat_y": -20.3185429996597, "lon_x": -65.7083029996837, "cert": "Buena"}, "geometry": {"type": "Point", "coordinates": [-65.7083029996837, -20.3185429996597]}}, {"type": "Feature", "properties": {"ID": 7425, "gz_id": 8000176, "lat_y": -19.5522380001835, "lon_x": -65.4532389995802, "cert": "Buena"}, "geometry": {"type": "Point", "coordinates": [-65.4532389995802, -19.5522380001835]}}, {"type": "Feature", "properties": {"ID": 7426, "gz_id": 8000181, "lat_y": -19.3604539999521, "lon_x": -65.4619189996621, "cert": "Buena"}, "geometry": {"type": "Point", "coordinates": [-65.4619189996621, -19.3604539999521]}}, {"type": "Feature", "properties": {"ID": 7427, "gz_id": 8000172, "lat_y": -20.0648350000352, "lon_x": -66.5317710002315, "cert": "Buena"}, "geometry": {"type": "Point", "coordinates": [-66.5317710002315, -20.0648350000352]}}, {"type": "Feature", "properties": {"ID": 7428, "gz_id": 8000180, "lat_y": -19.7556099997017, "lon_x": -65.3756800004317, "cert": "Buena"}, "geometry": {"type": "Point", "coordinates": [-65.3756800004317, -19.7556099997017]}}, {"type": "Feature", "properties": {"ID": 7429, "gz_id": 8000175, "lat_y": -19.2203980001675, "lon_x": -65.8232800003717, "cert": "Buena"}, "geometry": {"type": "Point", "coordinates": [-65.8232800003717, -19.2203980001675]}}, {"type": "Feature", "properties": {"ID": 7430, "gz_id": 8000177, "lat_y": -19.6429479996504, "lon_x": -65.219004999581, "cert": "Buena"}, "geometry": {"type": "Point", "coordinates": [-65.219004999581, -19.6429479996504]}}, {"type": "Feature", "properties": {"ID": 7431, "gz_id": 8000184, "lat_y": -19.7191730002338, "lon_x": -65.4186499998975, "cert": "Buena"}, "geometry": {"type": "Point", "coordinates": [-65.4186499998975, -19.7191730002338]}}, {"type": "Feature", "properties": {"ID": 7432, "gz_id": 8000183, "lat_y": -19.2011110001725, "lon_x": -65.5525000003747, "cert": "Buena"}, "geometry": {"type": "Point", "coordinates": [-65.5525000003747, -19.2011110001725]}}, {"type": "Feature", "properties": {"ID": 7433, "gz_id": 8000179, "lat_y": -19.819671999663, "lon_x": -64.9412829996107, "cert": "Buena"}, "geometry": {"type": "Point", "coordinates": [-64.9412829996107, -19.819671999663]}}, {"type": "Feature", "properties": {"ID": 7434, "gz_id": 8000182, "lat_y": -19.321019999873, "lon_x": -65.375219999903, "cert": "Buena"}, "geometry": {"type": "Point", "coordinates": [-65.375219999903, -19.321019999873]}}, {"type": "Feature", "properties": {"ID": 7435, "gz_id": 8000171, "lat_y": -20.0734010002559, "lon_x": -66.1249919995811, "cert": "Buena"}, "geometry": {"type": "Point", "coordinates": [-66.1249919995811, -20.0734010002559]}}, {"type": "Feature", "properties": {"ID": 7436, "gz_id": 8000178, "lat_y": -19.3770000003497, "lon_x": -65.0127999998201, "cert": "Buena"}, "geometry": {"type": "Point", "coordinates": [-65.0127999998201, -19.3770000003497]}}, {"type": "Feature", "properties": {"ID": 7437, "gz_id": 8000695, "lat_y": -19.4678999995853, "lon_x": -65.6284999995753, "cert": "Suficiente"}, "geometry": {"type": "Point", "coordinates": [-65.6284999995753, -19.4678999995853]}}, {"type": "Feature", "properties": {"ID": 7438, "gz_id": 8000637, "lat_y": -19.4745260002746, "lon_x": -65.7967350002201, "cert": "Buena"}, "geometry": {"type": "Point", "coordinates": [-65.7967350002201, -19.4745260002746]}}, {"type": "Feature", "properties": {"ID": 7439, "gz_id": 8000636, "lat_y": -19.3899999999999, "lon_x": -65.9091669995573, "cert": "Buena"}, "geometry": {"type": "Point", "coordinates": [-65.9091669995573, -19.3899999999999]}}, {"type": "Feature", "properties": {"ID": 7440, "gz_id": 8000037, "lat_y": -18.4608660000658, "lon_x": -66.4430469997192, "cert": "Buena"}, "geometry": {"type": "Point", "coordinates": [-66.4430469997192, -18.4608660000658]}}, {"type": "Feature", "properties": {"ID": 7441, "gz_id": 8000037, "lat_y": -18.4608660000658, "lon_x": -66.4430469997192, "cert": "Buena"}, "geometry": {"type": "Point", "coordinates": [-66.4430469997192, -18.4608660000658]}}, {"type": "Feature", "properties": {"ID": 7442, "gz_id": 8000150, "lat_y": -18.2705560003591, "lon_x": -65.9808330003427, "cert": "Buena"}, "geometry": {"type": "Point", "coordinates": [-65.9808330003427, -18.2705560003591]}}, {"type": "Feature", "properties": {"ID": 7443, "gz_id": 8000152, "lat_y": -18.4660363895677, "lon_x": -66.5645201902545, "cert": "Buena"}, "geometry": {"type": "Point", "coordinates": [-66.5645201902545, -18.4660363895677]}}, {"type": "Feature", "properties": {"ID": 7444, "gz_id": 8000156, "lat_y": -18.7420261495871, "lon_x": -65.5918258794607, "cert": "Suficiente"}, "geometry": {"type": "Point", "coordinates": [-65.5918258794607, -18.7420261495871]}}, {"type": "Feature", "properties": {"ID": 7445, "gz_id": 8000155, "lat_y": -18.6961570002453, "lon_x": -65.6292479998953, "cert": "Buena"}, "geometry": {"type": "Point", "coordinates": [-65.6292479998953, -18.6961570002453]}}, {"type": "Feature", "properties": {"ID": 7446, "gz_id": 8000154, "lat_y": -18.5843740002599, "lon_x": -65.5212790004255, "cert": "Buena"}, "geometry": {"type": "Point", "coordinates": [-65.5212790004255, -18.5843740002599]}}, {"type": "Feature", "properties": {"ID": 7447, "gz_id": 8000151, "lat_y": -18.3689829995657, "lon_x": -65.8333390001947, "cert": "Buena"}, "geometry": {"type": "Point", "coordinates": [-65.8333390001947, -18.3689829995657]}}, {"type": "Feature", "properties": {"ID": 7448, "gz_id": 8000149, "lat_y": -18.0241670001069, "lon_x": -66.0588889999274, "cert": "Buena"}, "geometry": {"type": "Point", "coordinates": [-66.0588889999274, -18.0241670001069]}}, {"type": "Feature", "properties": {"ID": 7449, "gz_id": 8000147, "lat_y": -18.4488326502066, "lon_x": -66.4612532601298, "cert": "Buena"}, "geometry": {"type": "Point", "coordinates": [-66.4612532601298, -18.4488326502066]}}, {"type": "Feature", "properties": {"ID": 7450, "gz_id": 8000160, "lat_y": -18.424847000089, "lon_x": -66.2842920000757, "cert": "Buena"}, "geometry": {"type": "Point", "coordinates": [-66.2842920000757, -18.424847000089]}}, {"type": "Feature", "properties": {"ID": 7451, "gz_id": 8000161, "lat_y": -18.6988490002811, "lon_x": -66.1626860003586, "cert": "Buena"}, "geometry": {"type": "Point", "coordinates": [-66.1626860003586, -18.6988490002811]}}, {"type": "Feature", "properties": {"ID": 7452, "gz_id": 8000158, "lat_y": -18.8175000004246, "lon_x": -66.0372219998953, "cert": "Buena"}, "geometry": {"type": "Point", "coordinates": [-66.0372219998953, -18.8175000004246]}}, {"type": "Feature", "properties": {"ID": 7453, "gz_id": 8000153, "lat_y": -18.3188859996891, "lon_x": -65.6891179998958, "cert": "Buena"}, "geometry": {"type": "Point", "coordinates": [-65.6891179998958, -18.3188859996891]}}, {"type": "Feature", "properties": {"ID": 7454, "gz_id": 8000159, "lat_y": -18.3628000004196, "lon_x": -66.0150999995653, "cert": "Suficiente"}, "geometry": {"type": "Point", "coordinates": [-66.0150999995653, -18.3628000004196]}}, {"type": "Feature", "properties": {"ID": 7455, "gz_id": 8000157, "lat_y": -18.6837999996702, "lon_x": -65.9993000002947, "cert": "Buena"}, "geometry": {"type": "Point", "coordinates": [-65.9993000002947, -18.6837999996702]}}, {"type": "Feature", "properties": {"ID": 7456, "gz_id": 8000148, "lat_y": -18.0694439998407, "lon_x": -66.3844439996908, "cert": "Buena"}, "geometry": {"type": "Point", "coordinates": [-66.3844439996908, -18.0694439998407]}}, {"type": "Feature", "properties": {"ID": 7457, "gz_id": 8000049, "lat_y": -17.8222060000069, "lon_x": -67.0203559998295, "cert": "Buena"}, "geometry": {"type": "Point", "coordinates": [-67.0203559998295, -17.8222060000069]}}, {"type": "Feature", "properties": {"ID": 7458, "gz_id": 9900187, "lat_y": -17.6511593598166, "lon_x": -67.215286180213, "cert": "Buena"}, "geometry": {"type": "Point", "coordinates": [-67.215286180213, -17.6511593598166]}}, {"type": "Feature", "properties": {"ID": 7459, "gz_id": 8000282, "lat_y": -18.1699509996389, "lon_x": -66.9641050003455, "cert": "Buena"}, "geometry": {"type": "Point", "coordinates": [-66.9641050003455, -18.1699509996389]}}, {"type": "Feature", "properties": {"ID": 7460, "gz_id": 8000055, "lat_y": -19.0435000002248, "lon_x": -66.7453999997102, "cert": "Buena"}, "geometry": {"type": "Point", "coordinates": [-66.7453999997102, -19.0435000002248]}}, {"type": "Feature", "properties": {"ID": 7461, "gz_id": 8000056, "lat_y": -18.8997799996472, "lon_x": -66.7710750002111, "cert": "Buena"}, "geometry": {"type": "Point", "coordinates": [-66.7710750002111, -18.8997799996472]}}, {"type": "Feature", "properties": {"ID": 7462, "gz_id": 8000173, "lat_y": -19.5297219996705, "lon_x": -66.8138889996775, "cert": "Buena"}, "geometry": {"type": "Point", "coordinates": [-66.8138889996775, -19.5297219996705]}}, {"type": "Feature", "properties": {"ID": 7463, "gz_id": 8000054, "lat_y": -19.2330560002342, "lon_x": -66.9416669998321, "cert": "Buena"}, "geometry": {"type": "Point", "coordinates": [-66.9416669998321, -19.2330560002342]}}, {"type": "Feature", "properties": {"ID": 7464, "gz_id": 8000052, "lat_y": -18.0777960000853, "lon_x": -67.2400150003919, "cert": "Buena"}, "geometry": {"type": "Point", "coordinates": [-67.2400150003919, -18.0777960000853]}}, {"type": "Feature", "properties": {"ID": 7465, "gz_id": 8000053, "lat_y": -18.1813890001022, "lon_x": -67.4061110004223, "cert": "Buena"}, "geometry": {"type": "Point", "coordinates": [-67.4061110004223, -18.1813890001022]}}, {"type": "Feature", "properties": {"ID": 7466, "gz_id": 8000021, "lat_y": -18.3801910002144, "lon_x": -66.9658010003159, "cert": "Buena"}, "geometry": {"type": "Point", "coordinates": [-66.9658010003159, -18.3801910002144]}}, {"type": "Feature", "properties": {"ID": 7467, "gz_id": 8000011, "lat_y": -19.637777999555, "lon_x": -67.6752779997798, "cert": "Buena"}, "geometry": {"type": "Point", "coordinates": [-67.6752779997798, -19.637777999555]}}, {"type": "Feature", "properties": {"ID": 7468, "gz_id": 8000013, "lat_y": -19.1852780002794, "lon_x": -64.4613889997025, "cert": "Buena"}, "geometry": {"type": "Point", "coordinates": [-64.4613889997025, -19.1852780002794]}}, {"type": "Feature", "properties": {"ID": 7469, "gz_id": 8000012, "lat_y": -19.3078010000161, "lon_x": -64.3026039995749, "cert": "Buena"}, "geometry": {"type": "Point", "coordinates": [-64.3026039995749, -19.3078010000161]}}, {"type": "Feature", "properties": {"ID": 7470, "gz_id": 8000068, "lat_y": -19.119979999977, "lon_x": -64.7028700002502, "cert": "Buena"}, "geometry": {"type": "Point", "coordinates": [-64.7028700002502, -19.119979999977]}}, {"type": "Feature", "properties": {"ID": 7471, "gz_id": 8000063, "lat_y": -18.8290709998267, "lon_x": -64.6188879998812, "cert": "Buena"}, "geometry": {"type": "Point", "coordinates": [-64.6188879998812, -18.8290709998267]}}, {"type": "Feature", "properties": {"ID": 7472, "gz_id": 8000023, "lat_y": -20.1049999996502, "lon_x": -64.4144440003903, "cert": "Buena"}, "geometry": {"type": "Point", "coordinates": [-64.4144440003903, -20.1049999996502]}}, {"type": "Feature", "properties": {"ID": 7473, "gz_id": 8000064, "lat_y": -18.9299030002232, "lon_x": -64.937698999809, "cert": "Buena"}, "geometry": {"type": "Point", "coordinates": [-64.937698999809, -18.9299030002232]}}, {"type": "Feature", "properties": {"ID": 7474, "gz_id": 8000067, "lat_y": -19.6288889997275, "lon_x": -64.3111109997728, "cert": "Buena"}, "geometry": {"type": "Point", "coordinates": [-64.3111109997728, -19.6288889997275]}}, {"type": "Feature", "properties": {"ID": 7475, "gz_id": 8000065, "lat_y": -19.1802050001606, "lon_x": -64.9162370002373, "cert": "Buena"}, "geometry": {"type": "Point", "coordinates": [-64.9162370002373, -19.1802050001606]}}, {"type": "Feature", "properties": {"ID": 7476, "gz_id": 8000066, "lat_y": -19.4858330000928, "lon_x": -64.4736110003474, "cert": "Buena"}, "geometry": {"type": "Point", "coordinates": [-64.4736110003474, -19.4858330000928]}}, {"type": "Feature", "properties": {"ID": 7477, "gz_id": 8000048, "lat_y": -18.350274000145, "lon_x": -67.6821219997304, "cert": "Buena"}, "geometry": {"type": "Point", "coordinates": [-67.6821219997304, -18.350274000145]}}, {"type": "Feature", "properties": {"ID": 7478, "gz_id": 8000046, "lat_y": -18.0982239996378, "lon_x": -67.8955049995561, "cert": "Buena"}, "geometry": {"type": "Point", "coordinates": [-67.8955049995561, -18.0982239996378]}}, {"type": "Feature", "properties": {"ID": 7479, "gz_id": 8000045, "lat_y": -17.8389441621433, "lon_x": -67.9421090874644, "cert": "Buena"}, "geometry": {"type": "Point", "coordinates": [-67.9421090874644, -17.8389441621433]}}, {"type": "Feature", "properties": {"ID": 7480, "gz_id": 8000044, "lat_y": -17.792741000097, "lon_x": -68.1454029997486, "cert": "Buena"}, "geometry": {"type": "Point", "coordinates": [-68.1454029997486, -17.792741000097]}}, {"type": "Feature", "properties": {"ID": 7481, "gz_id": 8000043, "lat_y": -18.1808329996432, "lon_x": -68.1927780000046, "cert": "Buena"}, "geometry": {"type": "Point", "coordinates": [-68.1927780000046, -18.1808329996432]}}, {"type": "Feature", "properties": {"ID": 7482, "gz_id": 8000020, "lat_y": -17.8433330003177, "lon_x": -68.4086110003973, "cert": "Buena"}, "geometry": {"type": "Point", "coordinates": [-68.4086110003973, -17.8433330003177]}}, {"type": "Feature", "properties": {"ID": 7483, "gz_id": 8000047, "lat_y": -18.7786339995594, "lon_x": -67.5074889999174, "cert": "Buena"}, "geometry": {"type": "Point", "coordinates": [-67.5074889999174, -18.7786339995594]}}, {"type": "Feature", "properties": {"ID": 7484, "gz_id": 8000042, "lat_y": -18.7938889997775, "lon_x": -68.2611109999726, "cert": "Buena"}, "geometry": {"type": "Point", "coordinates": [-68.2611109999726, -18.7938889997775]}}, {"type": "Feature", "properties": {"ID": 7485, "gz_id": 8000061, "lat_y": -20.9166999998051, "lon_x": -64.7668000004197, "cert": "Buena"}, "geometry": {"type": "Point", "coordinates": [-64.7668000004197, -20.9166999998051]}}, {"type": "Feature", "properties": {"ID": 7486, "gz_id": 8000058, "lat_y": -20.3248000004197, "lon_x": -64.8038999998851, "cert": "Buena"}, "geometry": {"type": "Point", "coordinates": [-64.8038999998851, -20.3248000004197]}}, {"type": "Feature", "properties": {"ID": 7487, "gz_id": 8000060, "lat_y": -20.5822930001218, "lon_x": -64.776185999784, "cert": "Buena"}, "geometry": {"type": "Point", "coordinates": [-64.776185999784, -20.5822930001218]}}, {"type": "Feature", "properties": {"ID": 7488, "gz_id": 8000057, "lat_y": -20.1025000003747, "lon_x": -65.1333330004176, "cert": "Buena"}, "geometry": {"type": "Point", "coordinates": [-65.1333330004176, -20.1025000003747]}}, {"type": "Feature", "properties": {"ID": 7489, "gz_id": 8000059, "lat_y": -20.303299999995, "lon_x": -64.6744999995753, "cert": "Buena"}, "geometry": {"type": "Point", "coordinates": [-64.6744999995753, -20.303299999995]}}, {"type": "Feature", "properties": {"ID": 7490, "gz_id": 8000022, "lat_y": -20.6376139998861, "lon_x": -65.2086080003589, "cert": "Buena"}, "geometry": {"type": "Point", "coordinates": [-65.2086080003589, -20.6376139998861]}}, {"type": "Feature", "properties": {"ID": 7491, "gz_id": 8000034, "lat_y": -17.3329520001346, "lon_x": -67.7389620002961, "cert": "Buena"}, "geometry": {"type": "Point", "coordinates": [-67.7389620002961, -17.3329520001346]}}, {"type": "Feature", "properties": {"ID": 7492, "gz_id": 8000132, "lat_y": -17.1586260000898, "lon_x": -67.4112629996877, "cert": "Buena"}, "geometry": {"type": "Point", "coordinates": [-67.4112629996877, -17.1586260000898]}}, {"type": "Feature", "properties": {"ID": 7493, "gz_id": 8000138, "lat_y": -17.0628200003427, "lon_x": -67.6607119998588, "cert": "Buena"}, "geometry": {"type": "Point", "coordinates": [-67.6607119998588, -17.0628200003427]}}, {"type": "Feature", "properties": {"ID": 7494, "gz_id": 8000137, "lat_y": -17.2316899996937, "lon_x": -67.125939999931, "cert": "Buena"}, "geometry": {"type": "Point", "coordinates": [-67.125939999931, -17.2316899996937]}}, {"type": "Feature", "properties": {"ID": 7495, "gz_id": 8000135, "lat_y": -17.0805043266133, "lon_x": -66.9907403931546, "cert": "Suficiente"}, "geometry": {"type": "Point", "coordinates": [-66.9907403931546, -17.0805043266133]}}, {"type": "Feature", "properties": {"ID": 7496, "gz_id": 8000166, "lat_y": -21.1540020000922, "lon_x": -67.1661289997535, "cert": "Buena"}, "geometry": {"type": "Point", "coordinates": [-67.1661289997535, -21.1540020000922]}}, {"type": "Feature", "properties": {"ID": 7497, "gz_id": 8000476, "lat_y": -21.6956699996707, "lon_x": -66.2280999997152, "cert": "Buena"}, "geometry": {"type": "Point", "coordinates": [-66.2280999997152, -21.6956699996707]}}, {"type": "Feature", "properties": {"ID": 7498, "gz_id": 8000234, "lat_y": -19.8505580003514, "lon_x": -68.2498010000161, "cert": "Buena"}, "geometry": {"type": "Point", "coordinates": [-68.2498010000161, -19.8505580003514]}}, {"type": "Feature", "properties": {"ID": 7499, "gz_id": 8000039, "lat_y": -21.8735170874436, "lon_x": -66.8825398982976, "cert": "Buena"}, "geometry": {"type": "Point", "coordinates": [-66.8825398982976, -21.8735170874436]}}, {"type": "Feature", "properties": {"ID": 7500, "gz_id": 8000122, "lat_y": -17.4794439999406, "lon_x": -68.3552779996799, "cert": "Buena"}, "geometry": {"type": "Point", "coordinates": [-68.3552779996799, -17.4794439999406]}}, {"type": "Feature", "properties": {"ID": 7501, "gz_id": 8000124, "lat_y": -17.4912300002642, "lon_x": -68.4907729995742, "cert": "Buena"}, "geometry": {"type": "Point", "coordinates": [-68.4907729995742, -17.4912300002642]}}, {"type": "Feature", "properties": {"ID": 7502, "gz_id": 8000123, "lat_y": -17.6547219998204, "lon_x": -68.0486110003973, "cert": "Buena"}, "geometry": {"type": "Point", "coordinates": [-68.0486110003973, -17.6547219998204]}}, {"type": "Feature", "properties": {"ID": 7503, "gz_id": 8000036, "lat_y": -22.9106910001894, "lon_x": -68.2000930000918, "cert": "Buena"}, "geometry": {"type": "Point", "coordinates": [-68.2000930000918, -22.9106910001894]}}, {"type": "Feature", "properties": {"ID": 7504, "gz_id": 8000146, "lat_y": -22.3428620001811, "lon_x": -68.6500659997461, "cert": "Buena"}, "geometry": {"type": "Point", "coordinates": [-68.6500659997461, -22.3428620001811]}}]}